[
    {
        "Altitude(m)": 717302.7661633886,
        "Argument of Periapsis(deg)": 0.004556048474650827,
        "Eccentricity": 0.0,
        "Inclination(deg)": 45.0,
        "Latitude(deg)": -43.75256166661613,
        "Longitude(deg)": -177.51240192580752,
        "Mean Anomaly(deg)": -77.20491334100767,
        "RAAN(deg)": 354.99569922341675,
        "Satellite Name": "Constellation 1 1579",
        "Satellite Number": 1579,
        "Semi-Major Axis(m)": 7083131.272910544,
        "Time(s)": 76
    },
    {
        "Altitude(m)": 717297.3346599711,
        "Argument of Periapsis(deg)": 0.004615996480896233,
        "Eccentricity": 0.0,
        "Inclination(deg)": 45.0,
        "Latitude(deg)": -43.73943484044103,
        "Longitude(deg)": -177.43488247848248,
        "Mean Anomaly(deg)": -77.14421220075772,
        "RAAN(deg)": 354.99564263425117,
        "Satellite Name": "Constellation 1 1579",
        "Satellite Number": 1579,
        "Semi-Major Axis(m)": 7083131.272910544,
        "Time(s)": 77
    },
    {
        "Altitude(m)": 717291.8789031554,
        "Argument of Periapsis(deg)": 0.004675944487141638,
        "Eccentricity": 0.0,
        "Inclination(deg)": 45.0,
        "Latitude(deg)": -43.72624972767669,
        "Longitude(deg)": -177.35739868736704,
        "Mean Anomaly(deg)": -77.08351106050789,
        "RAAN(deg)": 354.9955860450856,
        "Satellite Name": "Constellation 1 1579",
        "Satellite Number": 1579,
        "Semi-Major Axis(m)": 7083131.272910544,
        "Time(s)": 78
    },
    {
        "Altitude(m)": 717286.3989130103,
        "Argument of Periapsis(deg)": 0.004735892493387044,
        "Eccentricity": 0.0,
        "Inclination(deg)": 45.0,
        "Latitude(deg)": -43.71300638002669,
        "Longitude(deg)": -177.27995067810167,
        "Mean Anomaly(deg)": -77.02280992025796,
        "RAAN(deg)": 354.99552945592,
        "Satellite Name": "Constellation 1 1579",
        "Satellite Number": 1579,
        "Semi-Major Axis(m)": 7083131.272910544,
        "Time(s)": 79
    },
    {
        "Altitude(m)": 717280.8947096975,
        "Argument of Periapsis(deg)": 0.004795840499632449,
        "Eccentricity": 0.0,
        "Inclination(deg)": 45.0,
        "Latitude(deg)": -43.699704849365084,
        "Longitude(deg)": -177.2025385757962,
        "Mean Anomaly(deg)": -76.96210878000802,
        "RAAN(deg)": 354.9954728667545,
        "Satellite Name": "Constellation 1 1579",
        "Satellite Number": 1579,
        "Semi-Major Axis(m)": 7083131.272910544,
        "Time(s)": 80
    },
    {
        "Altitude(m)": 717275.3663134689,
        "Argument of Periapsis(deg)": 0.004855788505877855,
        "Eccentricity": 0.0,
        "Inclination(deg)": 45.0,
        "Latitude(deg)": -43.68634518773566,
        "Longitude(deg)": -177.12516250502827,
        "Mean Anomaly(deg)": -76.90140763975819,
        "RAAN(deg)": 354.9954162775889,
        "Satellite Name": "Constellation 1 1579",
        "Satellite Number": 1579,
        "Semi-Major Axis(m)": 7083131.272910544,
        "Time(s)": 81
    },
    {
        "Altitude(m)": 717269.8137446657,
        "Argument of Periapsis(deg)": 0.00491573651212326,
        "Eccentricity": 0.0,
        "Inclination(deg)": 45.0,
        "Latitude(deg)": -43.67292744735052,
        "Longitude(deg)": -177.04782275793875,
        "Mean Anomaly(deg)": -76.84070649950829,
        "RAAN(deg)": 354.9953596884233,
        "Satellite Name": "Constellation 1 1579",
        "Satellite Number": 1579,
        "Semi-Major Axis(m)": 7083131.272910544,
        "Time(s)": 82
    },
    {
        "Altitude(m)": 717264.2370237139,
        "Argument of Periapsis(deg)": 0.004975684518368666,
        "Eccentricity": 0.0,
        "Inclination(deg)": 45.0,
        "Latitude(deg)": -43.65945168059056,
        "Longitude(deg)": -176.9705191218436,
        "Mean Anomaly(deg)": -76.78000535925831,
        "RAAN(deg)": 354.99530309925774,
        "Satellite Name": "Constellation 1 1579",
        "Satellite Number": 1579,
        "Semi-Major Axis(m)": 7083131.272910544,
        "Time(s)": 83
    },
    {
        "Altitude(m)": 717258.6361711338,
        "Argument of Periapsis(deg)": 0.005035632524614072,
        "Eccentricity": 0.0,
        "Inclination(deg)": 45.0,
        "Latitude(deg)": -43.64591794000281,
        "Longitude(deg)": -176.89325188781538,
        "Mean Anomaly(deg)": -76.71930421900848,
        "RAAN(deg)": 354.99524651009216,
        "Satellite Name": "Constellation 1 1579",
        "Satellite Number": 1579,
        "Semi-Major Axis(m)": 7083131.272910544,
        "Time(s)": 84
    },
    {
        "Altitude(m)": 717253.0112075269,
        "Argument of Periapsis(deg)": 0.0050955805308594785,
        "Eccentricity": 0.0,
        "Inclination(deg)": 45.0,
        "Latitude(deg)": -43.63232627830057,
        "Longitude(deg)": -176.81602117829323,
        "Mean Anomaly(deg)": -76.65860307875859,
        "RAAN(deg)": 354.99518992092663,
        "Satellite Name": "Constellation 1 1579",
        "Satellite Number": 1579,
        "Semi-Major Axis(m)": 7083131.272910544,
        "Time(s)": 85
    },
    {
        "Altitude(m)": 717247.3621535858,
        "Argument of Periapsis(deg)": 0.005155528537104883,
        "Eccentricity": 0.0,
        "Inclination(deg)": 45.0,
        "Latitude(deg)": -43.61867674836236,
        "Longitude(deg)": -176.7388271151797,
        "Mean Anomaly(deg)": -76.59790193850866,
        "RAAN(deg)": 354.995133331761,
        "Satellite Name": "Constellation 1 1579",
        "Satellite Number": 1579,
        "Semi-Major Axis(m)": 7083131.272910544,
        "Time(s)": 86
    },
    {
        "Altitude(m)": 717241.6890300936,
        "Argument of Periapsis(deg)": 0.0052154765433502885,
        "Eccentricity": 0.0,
        "Inclination(deg)": 45.0,
        "Latitude(deg)": -43.60496940323106,
        "Longitude(deg)": -176.66166981984006,
        "Mean Anomaly(deg)": -76.53720079825871,
        "RAAN(deg)": 354.9950767425955,
        "Satellite Name": "Constellation 1 1579",
        "Satellite Number": 1579,
        "Semi-Major Axis(m)": 7083131.272910544,
        "Time(s)": 87
    },
    {
        "Altitude(m)": 717235.9918579148,
        "Argument of Periapsis(deg)": 0.005275424549595694,
        "Eccentricity": 0.0,
        "Inclination(deg)": 45.0,
        "Latitude(deg)": -43.59120429611296,
        "Longitude(deg)": -176.58454941310163,
        "Mean Anomaly(deg)": -76.47649965800893,
        "RAAN(deg)": 354.9950201534299,
        "Satellite Name": "Constellation 1 1579",
        "Satellite Number": 1579,
        "Semi-Major Axis(m)": 7083131.272910544,
        "Time(s)": 88
    },
    {
        "Altitude(m)": 717230.2706580145,
        "Argument of Periapsis(deg)": 0.0053353725558411,
        "Eccentricity": 0.0,
        "Inclination(deg)": 45.0,
        "Latitude(deg)": -43.577381480376395,
        "Longitude(deg)": -176.50746618334875,
        "Mean Anomaly(deg)": -76.41579851775893,
        "RAAN(deg)": 354.9949635642643,
        "Satellite Name": "Constellation 1 1579",
        "Satellite Number": 1579,
        "Semi-Major Axis(m)": 7083131.272910544,
        "Time(s)": 89
    },
    {
        "Altitude(m)": 717224.525451428,
        "Argument of Periapsis(deg)": 0.005395320562086505,
        "Eccentricity": 0.0,
        "Inclination(deg)": 45.0,
        "Latitude(deg)": -43.56350100955251,
        "Longitude(deg)": -176.43041991413568,
        "Mean Anomaly(deg)": -76.3550973775091,
        "RAAN(deg)": 354.9949069750988,
        "Satellite Name": "Constellation 1 1579",
        "Satellite Number": 1579,
        "Semi-Major Axis(m)": 7083131.272910544,
        "Time(s)": 90
    },
    {
        "Altitude(m)": 717218.7562592925,
        "Argument of Periapsis(deg)": 0.00545526856833191,
        "Eccentricity": 0.0,
        "Inclination(deg)": 45.0,
        "Latitude(deg)": -43.54956293733206,
        "Longitude(deg)": -176.35341089276662,
        "Mean Anomaly(deg)": -76.29439623725916,
        "RAAN(deg)": 354.99485038593315,
        "Satellite Name": "Constellation 1 1579",
        "Satellite Number": 1579,
        "Semi-Major Axis(m)": 7083131.272910544,
        "Time(s)": 91
    },
    {
        "Altitude(m)": 717212.9631028285,
        "Argument of Periapsis(deg)": 0.005515216574577317,
        "Eccentricity": 0.0,
        "Inclination(deg)": 45.0,
        "Latitude(deg)": -43.53556731756606,
        "Longitude(deg)": -176.27643923790788,
        "Mean Anomaly(deg)": -76.23369509700927,
        "RAAN(deg)": 354.9947937967676,
        "Satellite Name": "Constellation 1 1579",
        "Satellite Number": 1579,
        "Semi-Major Axis(m)": 7083131.272910544,
        "Time(s)": 92
    },
    {
        "Altitude(m)": 717207.1460033418,
        "Argument of Periapsis(deg)": 0.005575164580822722,
        "Eccentricity": 0.0,
        "Inclination(deg)": 45.0,
        "Latitude(deg)": -43.521514204264385,
        "Longitude(deg)": -176.19950506768322,
        "Mean Anomaly(deg)": -76.17299395675934,
        "RAAN(deg)": 354.99473720760204,
        "Satellite Name": "Constellation 1 1579",
        "Satellite Number": 1579,
        "Semi-Major Axis(m)": 7083131.272910544,
        "Time(s)": 93
    },
    {
        "Altitude(m)": 717201.3049822326,
        "Argument of Periapsis(deg)": 0.005635112587068129,
        "Eccentricity": 0.0,
        "Inclination(deg)": 45.0,
        "Latitude(deg)": -43.50740365159507,
        "Longitude(deg)": -176.12260849967416,
        "Mean Anomaly(deg)": -76.11229281650955,
        "RAAN(deg)": 354.99468061843646,
        "Satellite Name": "Constellation 1 1579",
        "Satellite Number": 1579,
        "Semi-Major Axis(m)": 7083131.272910544,
        "Time(s)": 94
    }
]